FENGYUN 1C DEB          
1 30133U 99025SN  17345.75997392  .00000354  00000-0  27036-3 0  9999
2 30133  98.3178   5.2796 0091147 210.0140 197.7003 13.97280376554947
